OBJECT_NAME,OBJECT_ID,EPOCH,MEAN_MOTION,ECCENTRICITY,INCLINATION,RA_OF_ASC_NODE,ARG_OF_PERICENTER,MEAN_ANOMALY,EPHEMERIS_TYPE,CLASSIFICATION_TYPE,NORAD_CAT_ID,ELEMENT_SET_NO,REV_AT_EPOCH,BSTAR,MEAN_MOTION_DOT,MEAN_MOTION_DDOT
SKYSAT-C4,2016-058B,2026-07-14T00:17:17.577600,15.49411318,.0003445,96.9161,215.6743,119.5998,240.5598,0,U,41771,999,54962,.1948E-3,.1061E-3,0
SKYSAT-C5,2016-058C,2026-07-14T02:27:04.948704,15.33710003,.000244,97.0456,234.5365,163.7716,196.3606,0,U,41772,999,54787,.139E-3,.4457E-4,0
SKYSAT-C2,2016-058D,2026-07-14T01:17:32.919072,15.42663509,.0001653,97.0156,216.1462,357.8102,2.3139,0,U,41773,999,54919,.17615E-3,.7595E-4,0
SKYSAT-C3,2016-058E,2026-07-14T01:47:54.095424,15.53672542,.0002454,96.8994,224.9052,133.1367,227.0093,0,U,41774,999,55028,.24332E-3,.15462E-3,0
ALSAT-1B,2016-059C,2026-07-14T05:18:54.635616,14.72294228,.0010254,97.7751,202.8186,132.5683,227.6392,0,U,41785,999,52455,.3859E-4,.197E-5,0
PATHFINDER 1,2016-059E,2026-07-13T22:18:52.133184,14.67692320,.0029759,97.8176,193.0002,119.5594,240.8583,0,U,41787,999,52363,.5887E-4,.291E-5,0
SCATSAT 1,2016-059H,2026-07-14T03:06:43.113024,14.79585721,.005515,98.1179,259.1723,159.9604,200.3790,0,U,41790,999,10557,.96401E-4,.684E-5,0
GOKTURK 1A,2016-073A,2026-07-14T04:43:18.117408,14.62792767,.0001423,98.1223,89.4444,79.2996,280.8366,0,U,41875,999,51277,.49516E-4,.206E-5,0
RESOURCESAT-2A,2016-074A,2026-07-14T04:01:57.268416,14.21608535,.0002434,98.7528,268.4505,31.4676,328.6647,0,U,41877,999,49813,.10905E-4,-.2E-6,0
CARTOSAT-2D,2017-008A,2026-07-14T03:54:08.284032,15.19282760,.0005892,97.4099,253.9624,142.0490,218.1161,0,U,41948,999,52167,.17425E-3,.3609E-4,0
SENTINEL-2B,2017-013A,2026-07-14T04:48:44.362080,14.30814336,.0001201,98.5693,269.5925,91.8726,268.2594,0,U,42063,999,48850,-.32484E-4,-.129E-5,0
CARTOSAT-2E,2017-036C,2026-07-14T04:19:41.710368,15.19251181,.0003154,97.4263,254.5358,193.3081,166.8071,0,U,42767,999,50224,.15868E-3,.3277E-4,0
FORMOSAT-5,2017-049A,2026-07-14T03:43:45.002208,14.50907661,.0011404,98.2246,269.8651,7.0206,353.1146,0,U,42920,999,47058,.22185E-4,.44E-6,0
SENTINEL-5P,2017-064A,2026-07-13T20:17:35.360160,14.19523141,.0001111,98.7929,136.7881,93.4000,266.7303,0,U,42969,999,45334,.18749E-4,-.5E-7,0
SKYSAT-C11,2017-068A,2026-07-13T22:59:56.056416,15.59277174,.0001109,97.4372,344.9864,159.6360,200.4941,0,U,42987,999,48741,.24812E-3,.19406E-3,0
SKYSAT-C10,2017-068B,2026-07-13T21:23:57.839424,15.35100278,.0001433,97.4534,332.0114,109.2126,250.9272,0,U,42988,999,48645,.18626E-3,.6262E-4,0
SKYSAT-C9,2017-068C,2026-07-14T04:06:54.999360,15.42198035,.0008737,97.4453,333.4906,48.1105,312.0886,0,U,42989,999,48691,.17827E-3,.7569E-4,0
SKYSAT-C8,2017-068D,2026-07-14T03:32:12.323904,15.37478233,.000123,97.4552,332.1736,101.8864,258.2518,0,U,42990,999,48645,.16968E-3,.6152E-4,0
SKYSAT-C7,2017-068E,2026-07-13T21:09:19.204128,15.37426088,.0005816,97.4561,332.8952,25.8991,334.2544,0,U,42991,999,48647,.17019E-3,.6163E-4,0
SKYSAT-C6,2017-068F,2026-07-13T21:19:29.553600,15.34155822,.0005141,97.4599,332.7619,92.5482,267.6350,0,U,42992,999,48641,.16616E-3,.5412E-4,0
CARTOSAT-2F,2018-004A,2026-07-14T03:31:44.285376,15.19267892,.0002702,97.4782,254.5163,137.7067,222.4376,0,U,43111,999,47142,.15444E-3,.3188E-4,0
GAOFEN-1 02,2018-031A,2026-07-14T04:53:08.074752,14.76471398,.0001551,98.0522,257.6531,292.2696,67.8349,0,U,43259,999,44668,.79682E-4,.503E-5,0
GAOFEN-1 03,2018-031B,2026-07-14T04:21:35.227872,14.76461756,.0002487,98.0504,257.4867,18.3999,341.7300,0,U,43260,999,44667,.59304E-4,.361E-5,0
GAOFEN-1 04,2018-031D,2026-07-14T05:24:11.721024,14.76471432,.0001333,98.0523,257.7244,57.5621,302.5717,0,U,43262,999,44667,.86942E-4,.554E-5,0
SENTINEL-3B,2018-039A,2026-07-14T04:33:09.982368,14.26735982,.0001118,98.6237,262.3328,120.3569,239.7722,0,U,43437,999,42797,.16586E-4,-.4E-7,0
GAOFEN-5 01,2018-043A,2026-07-13T21:58:25.164192,14.60622770,.0002161,98.4589,167.0660,34.7721,325.3620,0,U,43461,999,43559,.36154E-4,.127E-5,0
GAOFEN-6,2018-048A,2026-07-14T04:18:59.796000,14.76381494,.0012132,98.0966,257.8792,84.5641,275.6952,0,U,43484,999,43737,-.1121E-4,-.13E-5,0
GAOFEN-11 01,2018-063A,2026-07-14T04:32:23.608032,15.56050161,.0003059,97.1285,262.0038,203.6965,156.4150,0,U,43585,999,44454,.1436E-3,.9907E-4,0
ICESAT-2,2018-070A,2026-07-14T03:10:45.941952,15.28166518,.0005825,92.0096,298.2603,61.2431,298.9402,0,U,43613,999,43657,.19786E-3,.5433E-4,0
HYSIS,2018-096A,2026-07-14T03:27:51.022656,14.78669073,.000183,97.9837,261.6790,84.8897,275.2523,0,U,43719,999,41140,.10184E-3,.695E-5,0
KAZSTSAT,2018-099AB,2026-07-14T01:10:57.844704,14.99954158,.0007418,97.4318,225.7667,345.5890,14.5122,0,U,43783,999,41533,.5177E-4,.587E-5,0
