SKYSAT-C4               
1 41771U 16058B   26195.01200900  .00010610  00000+0  19480-3 0  9997
2 41771  96.9161 215.6743 0003445 119.5998 240.5598 15.49411318549626
SKYSAT-C5               
1 41772U 16058C   26195.10214061  .00004457  00000+0  13900-3 0  9994
2 41772  97.0456 234.5365 0002440 163.7716 196.3606 15.33710003547878
SKYSAT-C2               
1 41773U 16058D   26195.05385323  .00007595  00000+0  17615-3 0  9992
2 41773  97.0156 216.1462 0001653 357.8102   2.3139 15.42663509549192
SKYSAT-C3               
1 41774U 16058E   26195.07493166  .00015462  00000+0  24332-3 0  9996
2 41774  96.8994 224.9052 0002454 133.1367 227.0093 15.53672542550286
ALSAT-1B                
1 41785U 16059C   26195.22146569  .00000197  00000+0  38590-4 0  9999
2 41785  97.7751 202.8186 0010254 132.5683 227.6392 14.72294228524553
PATHFINDER 1            
1 41787U 16059E   26194.92977006  .00000291  00000+0  58870-4 0  9993
2 41787  97.8176 193.0002 0029759 119.5594 240.8583 14.67692320523637
SCATSAT 1               
1 41790U 16059H   26195.12966566  .00000684  00000+0  96401-4 0  9997
2 41790  98.1179 259.1723 0055150 159.9604 200.3790 14.79585721105575
GOKTURK 1A              
1 41875U 16073A   26195.19673747  .00000206  00000+0  49516-4 0  9995
2 41875  98.1223  89.4444 0001423  79.2996 280.8366 14.62792767512773
RESOURCESAT-2A          
1 41877U 16074A   26195.16802394 -.00000020  00000+0  10905-4 0  9992
2 41877  98.7528 268.4505 0002434  31.4676 328.6647 14.21608535498134
CARTOSAT-2D             
1 41948U 17008A   26195.16259588  .00003609  00000+0  17425-3 0  9998
2 41948  97.4099 253.9624 0005892 142.0490 218.1161 15.19282760521673
SENTINEL-2B             
1 42063U 17013A   26195.20051345 -.00000129  00000+0 -32484-4 0  9998
2 42063  98.5693 269.5925 0001201  91.8726 268.2594 14.30814336488506
CARTOSAT-2E             
1 42767U 17036C   26195.18034387  .00003277  00000+0  15868-3 0  9999
2 42767  97.4263 254.5358 0003154 193.3081 166.8071 15.19251181502245
FORMOSAT-5              
1 42920U 17049A   26195.15538197  .00000044  00000+0  22185-4 0  9999
2 42920  98.2246 269.8651 0011404   7.0206 353.1146 14.50907661470588
SENTINEL-5P             
1 42969U 17064A   26194.84554815 -.00000005  00000+0  18749-4 0  9998
2 42969  98.7929 136.7881 0001111  93.4000 266.7303 14.19523141453347
SKYSAT-C11              
1 42987U 17068A   26194.95828769  .00019406  00000+0  24812-3 0  9997
2 42987  97.4372 344.9864 0001109 159.6360 200.4941 15.59277174487415
SKYSAT-C10              
1 42988U 17068B   26194.89164166  .00006262  00000+0  18626-3 0  9997
2 42988  97.4534 332.0114 0001433 109.2126 250.9272 15.35100278486457
SKYSAT-C9               
1 42989U 17068C   26195.17146990  .00007569  00000+0  17827-3 0  9998
2 42989  97.4453 333.4906 0008737  48.1105 312.0886 15.42198035486912
SKYSAT-C8               
1 42990U 17068D   26195.14736486  .00006152  00000+0  16968-3 0  9994
2 42990  97.4552 332.1736 0001230 101.8864 258.2518 15.37478233486458
SKYSAT-C7               
1 42991U 17068E   26194.88147227  .00006163  00000+0  17019-3 0  9994
2 42991  97.4561 332.8952 0005816  25.8991 334.2544 15.37426088486473
SKYSAT-C6               
1 42992U 17068F   26194.88853650  .00005412  00000+0  16616-3 0  9997
2 42992  97.4599 332.7619 0005141  92.5482 267.6350 15.34155822486411
CARTOSAT-2F             
1 43111U 18004A   26195.14704034  .00003188  00000+0  15444-3 0  9999
2 43111  97.4782 254.5163 0002702 137.7067 222.4376 15.19267892471421
GAOFEN-1 02             
1 43259U 18031A   26195.20356568  .00000503  00000+0  79682-4 0  9997
2 43259  98.0522 257.6531 0001551 292.2696  67.8349 14.76471398446683
GAOFEN-1 03             
1 43260U 18031B   26195.18165773  .00000361  00000+0  59304-4 0  9993
2 43260  98.0504 257.4867 0002487  18.3999 341.7300 14.76461756446674
GAOFEN-1 04             
1 43262U 18031D   26195.22513566  .00000554  00000+0  86942-4 0  9999
2 43262  98.0523 257.7244 0001333  57.5621 302.5717 14.76471432446674
SENTINEL-3B             
1 43437U 18039A   26195.18969887 -.00000004  00000+0  16586-4 0  9995
2 43437  98.6237 262.3328 0001118 120.3569 239.7722 14.26735982427979
GAOFEN-5 01             
1 43461U 18043A   26194.91556903  .00000127  00000+0  36154-4 0  9996
2 43461  98.4589 167.0660 0002161  34.7721 325.3620 14.60622770435595
GAOFEN-6                
1 43484U 18048A   26195.17985875 -.00000130  00000+0 -11210-4 0  9991
2 43484  98.0966 257.8792 0012132  84.5641 275.6952 14.76381494437377
GAOFEN-11 01            
1 43585U 18063A   26195.18916213  .00009907  00000+0  14360-3 0  9998
2 43585  97.1285 262.0038 0003059 203.6965 156.4150 15.56050161444541
ICESAT-2                
1 43613U 18070A   26195.13247618  .00005433  00000+0  19786-3 0  9996
2 43613  92.0096 298.2603 0005825  61.2431 298.9402 15.28166518436574
HYSIS                   
1 43719U 18096A   26195.14434054  .00000695  00000+0  10184-3 0  9992
2 43719  97.9837 261.6790 0001830  84.8897 275.2523 14.78669073411403
KAZSTSAT                
1 43783U 18099AB  26195.04928061  .00000587  00000+0  51770-4 0  9998
2 43783  97.4318 225.7667 0007418 345.5890  14.5122 14.99954158415334
